[{"OBJECT_NAME":"STARLINK-34900","OBJECT_ID":"2025-190Z","EPOCH":"2026-03-09T12:53:34.365120","MEAN_MOTION":15.3017333,"ECCENTRICITY":0.00019026,"INCLINATION":53.1599,"RA_OF_ASC_NODE":168.7526,"ARG_OF_PERICENTER":134.895,"MEAN_ANOMALY":225.2206,"EPHEMERIS_TYPE":0,"CLASSIFICATION_TYPE":"U","NORAD_CAT_ID":65374,"ELEMENT_SET_NO":999,"REV_AT_EPOCH":2921,"BSTAR":-0.0010989861,"MEAN_MOTION_DOT":-0.00032741,"MEAN_MOTION_DDOT":0},{"OBJECT_NAME":"KUIPER-00180","OBJECT_ID":"2026-030E","EPOCH":"2026-03-09T22:29:40.634304","MEAN_MOTION":15.31865817,"ECCENTRICITY":0.00157227,"INCLINATION":51.8823,"RA_OF_ASC_NODE":218.464,"ARG_OF_PERICENTER":75.5448,"MEAN_ANOMALY":284.728,"EPHEMERIS_TYPE":0,"CLASSIFICATION_TYPE":"U","NORAD_CAT_ID":67768,"ELEMENT_SET_NO":999,"REV_AT_EPOCH":512,"BSTAR":0.011360708,"MEAN_MOTION_DOT":0.00373574,"MEAN_MOTION_DDOT":0}]
